[{"OBJECT_NAME":"OBJECT K","OBJECT_ID":"2024-092K","EPOCH":"2026-03-09T22:27:09.905184","MEAN_MOTION":15.32834875,"ECCENTRICITY":0.00087198,"INCLINATION":97.6413,"RA_OF_ASC_NODE":198.1023,"ARG_OF_PERICENTER":142.4952,"MEAN_ANOMALY":217.69,"EPHEMERIS_TYPE":0,"CLASSIFICATION_TYPE":"U","NORAD_CAT_ID":59809,"ELEMENT_SET_NO":999,"REV_AT_EPOCH":10001,"BSTAR":0.0007267688,"MEAN_MOTION_DOT":0.00023035,"MEAN_MOTION_DDOT":0},{"OBJECT_NAME":"STARLINK-32366","OBJECT_ID":"2024-184V","EPOCH":"2026-03-09T04:03:37.434528","MEAN_MOTION":15.30213666,"ECCENTRICITY":0.00013544,"INCLINATION":53.1624,"RA_OF_ASC_NODE":16.6139,"ARG_OF_PERICENTER":137.4615,"MEAN_ANOMALY":222.6491,"EPHEMERIS_TYPE":0,"CLASSIFICATION_TYPE":"U","NORAD_CAT_ID":61551,"ELEMENT_SET_NO":999,"REV_AT_EPOCH":7842,"BSTAR":-0.00016550885,"MEAN_MOTION_DOT":-5.26e-5,"MEAN_MOTION_DDOT":0}]
